OBJECT_NAME,OBJECT_ID,EPOCH,MEAN_MOTION,ECCENTRICITY,INCLINATION,RA_OF_ASC_NODE,ARG_OF_PERICENTER,MEAN_ANOMALY,EPHEMERIS_TYPE,CLASSIFICATION_TYPE,NORAD_CAT_ID,ELEMENT_SET_NO,REV_AT_EPOCH,BSTAR,MEAN_MOTION_DOT,MEAN_MOTION_DDOT
STARLINK-5390,2022-177BE,2025-10-27T21:18:53.307072,15.02535994,.00014683,43.0045,121.5117,273.5654,86.5021,0,U,54872,999,15713,.48405168E-4,.45E-5,0
STARLINK-5091,2022-177BF,2025-10-27T13:23:26.428992,15.02533792,.00012334,43.0028,123.3071,262.3755,97.6947,0,U,54873,999,15708,.90806636E-4,.1023E-4,0
STARLINK-5277,2023-010A,2025-10-27T15:15:06.844032,14.98335621,.00030481,70.0008,20.0160,267.9027,92.1783,0,U,55269,999,15313,.7730526E-5,-.1E-7,0
STARLINK-5306,2023-010C,2025-10-27T15:21:07.408512,14.98336823,.00031085,70.0009,20.0318,267.7454,92.3349,0,U,55271,999,15285,.30143598E-4,.267E-5,0
STARLINK-5310,2023-010D,2025-10-27T14:57:05.020992,14.98331828,.00032446,70.0012,19.9764,270.6163,89.4624,0,U,55272,999,15285,-.10272107E-4,-.216E-5,0
STARLINK-5291,2023-010E,2025-10-27T09:32:37.068864,14.98325961,.00028858,70.0008,20.3961,273.2617,86.8212,0,U,55273,999,15282,.70983394E-4,.754E-5,0
STARLINK-5236,2023-010F,2025-10-27T11:50:31.039584,14.98338027,.00031488,69.9998,0.4563,267.7590,92.3208,0,U,55274,999,15332,.11269292E-3,.1252E-4,0
STARLINK-5260,2023-010G,2025-10-27T21:15:31.559616,14.98335743,.00032188,70.0016,359.4198,270.4116,89.6674,0,U,55275,999,15338,.32468301E-3,.3784E-4,0
STARLINK-5261,2023-010H,2025-10-27T11:38:29.144256,14.98328694,.00031159,70.0000,0.4279,269.4471,90.6331,0,U,55276,999,15331,-.22324185E-4,-.359E-5,0
STARLINK-5299,2023-010J,2025-10-27T23:03:46.385856,14.98334906,.00031932,70.0011,19.1456,269.7788,90.3005,0,U,55277,999,15290,.18199446E-3,.2079E-4,0
STARLINK-5289,2023-010K,2025-10-27T16:15:10.983744,14.98336202,.00028333,70.0004,19.7618,267.6106,92.4729,0,U,55278,999,15285,.8102215E-4,.874E-5,0
STARLINK-5331,2023-010M,2025-10-27T15:33:08.811360,14.98348733,.000313,70.0003,20.0515,268.6465,91.4336,0,U,55280,999,15284,.15935677E-3,.181E-4,0
STARLINK-5298,2023-010N,2025-10-27T14:51:04.268160,14.98332942,.0003072,70.0007,19.9584,266.9806,93.1002,0,U,55281,999,15284,.14251192E-4,.77E-6,0
STARLINK-5330,2023-010P,2025-10-27T09:26:50.337024,14.98336755,.00029483,70.0009,20.3736,270.9227,89.1594,0,U,55282,999,15281,-.9920848E-5,-.211E-5,0
STARLINK-5317,2023-010Q,2025-10-27T16:21:11.555136,14.98332276,.00030659,70.0006,19.7767,268.3745,91.7063,0,U,55283,999,15285,-.9124862E-5,-.202E-5,0
STARLINK-5337,2023-010R,2025-10-27T09:26:36.122496,14.98335032,.00029851,70.0007,20.3726,269.9270,90.1547,0,U,55284,999,15280,.52037011E-4,.528E-5,0
STARLINK-5332,2023-010S,2025-10-27T13:38:33.209088,14.98336121,.00039164,69.9993,340.0257,267.6812,92.3899,0,U,55285,999,15470,.61429604E-4,.64E-5,0
STARLINK-5338,2023-010T,2025-10-27T11:26:27.867552,14.98333408,.00029084,70.0000,0.3987,271.6854,88.3972,0,U,55286,999,15331,.48452064E-4,.485E-5,0
STARLINK-5341,2023-010U,2025-10-27T13:14:17.287008,14.98323779,.00030719,69.9997,340.2927,270.5821,89.4986,0,U,55287,999,15381,.10857256E-3,.1202E-4,0
STARLINK-5311,2023-010V,2025-10-27T14:20:52.279584,14.98384323,.00032007,70.0006,0.0143,272.6661,87.4132,0,U,55288,999,15333,.55187303E-3,.6507E-4,0
STARLINK-5320,2023-010W,2025-10-27T14:44:44.318976,14.98332367,.00029426,69.9999,0.0752,271.8091,88.2731,0,U,55289,999,15333,-.103874E-6,-.94E-6,0
STARLINK-5266,2023-010X,2025-10-27T14:32:42.047808,14.98393920,.00027409,70.0003,0.0462,262.6763,97.4085,0,U,55290,999,15333,-.11820805E-2,-.14192E-3,0
STARLINK-5327,2023-010Y,2025-10-27T11:44:29.681088,14.98332863,.00030772,70.0000,0.4396,269.2754,90.8053,0,U,55291,999,15331,-.34940124E-4,-.51E-5,0
STARLINK-5325,2023-010Z,2025-10-27T11:02:24.950400,14.98336697,.00033371,70.0004,0.3361,269.0506,91.0271,0,U,55292,999,15331,.61717401E-4,.644E-5,0
STARLINK-5287,2023-010AA,2025-10-27T14:20:41.264448,14.98339708,.00031159,70.0005,0.0148,267.5631,92.5172,0,U,55293,999,15333,.27004494E-4,.229E-5,0
STARLINK-5286,2023-010AB,2025-10-27T09:38:37.478688,14.98333599,.00030809,70.0006,20.4018,271.2161,88.8646,0,U,55294,999,15281,-.31205124E-4,-.465E-5,0
STARLINK-5293,2023-010AC,2025-10-27T15:27:07.783776,14.98336211,.00037638,70.0009,20.0456,284.7485,75.3257,0,U,55295,999,15285,.66812076E-4,.704E-5,0
STARLINK-5285,2023-010AD,2025-10-27T21:57:19.646208,14.98328196,.00029663,70.0003,359.1134,264.7826,95.2995,0,U,55296,999,15426,.44690128E-4,.44E-5,0
STARLINK-5284,2023-010AE,2025-10-27T14:08:40.594272,14.98334279,.00032642,70.0003,359.9851,270.4279,89.6506,0,U,55297,999,15333,.217697E-4,.167E-5,0
STARLINK-5270,2023-010AG,2025-10-27T13:50:38.270112,14.98335148,.00031552,70.0003,359.9420,271.5122,88.5675,0,U,55299,999,15421,.20937706E-4,.157E-5,0
