STARLINK-5390           
1 54872U 22177BE  25300.88811698  .00000450  00000+0  48405-4 0  9997
2 54872  43.0045 121.5117 0001468 273.5654  86.5021 15.02535994157135
STARLINK-5091           
1 54873U 22177BF  25300.55794478  .00001023  00000+0  90807-4 0  9998
2 54873  43.0028 123.3071 0001233 262.3755  97.6947 15.02533792157082
STARLINK-5277           
1 55269U 23010A   25300.63549588 -.00000001  00000+0  77305-5 0  9999
2 55269  70.0008  20.0160 0003048 267.9027  92.1783 14.98335621153136
STARLINK-5306           
1 55271U 23010C   25300.63966908  .00000267  00000+0  30144-4 0  9993
2 55271  70.0009  20.0318 0003108 267.7454  92.3349 14.98336823152857
STARLINK-5310           
1 55272U 23010D   25300.62297478 -.00000216  00000+0 -10272-4 0  9998
2 55272  70.0012  19.9764 0003244 270.6163  89.4624 14.98331828152858
STARLINK-5291           
1 55273U 23010E   25300.39765126  .00000754  00000+0  70983-4 0  9993
2 55273  70.0008  20.3961 0002885 273.2617  86.8212 14.98325961152824
STARLINK-5236           
1 55274U 23010F   25300.49341481  .00001252  00000+0  11269-3 0  9994
2 55274  69.9998   0.4563 0003148 267.7590  92.3208 14.98338027153328
STARLINK-5260           
1 55275U 23010G   25300.88578194  .00003784  00000+0  32468-3 0  9997
2 55275  70.0016 359.4198 0003218 270.4116  89.6674 14.98335743153381
STARLINK-5261           
1 55276U 23010H   25300.48505954 -.00000359  00000+0 -22324-4 0  9996
2 55276  70.0000   0.4279 0003115 269.4471  90.6331 14.98328694153318
STARLINK-5299           
1 55277U 23010J   25300.96095354  .00002079  00000+0  18199-3 0  9991
2 55277  70.0011  19.1456 0003193 269.7788  90.3005 14.98334906152907
STARLINK-5289           
1 55278U 23010K   25300.67721046  .00000874  00000+0  81022-4 0  9991
2 55278  70.0004  19.7618 0002833 267.6106  92.4729 14.98336202152858
STARLINK-5331           
1 55280U 23010M   25300.64801865  .00001810  00000+0  15936-3 0  9990
2 55280  70.0003  20.0515 0003130 268.6465  91.4336 14.98348733152845
STARLINK-5298           
1 55281U 23010N   25300.61879940  .00000077  00000+0  14251-4 0  9991
2 55281  70.0007  19.9584 0003072 266.9806  93.1002 14.98332942152842
STARLINK-5330           
1 55282U 23010P   25300.39363816 -.00000211  00000+0 -99208-5 0  9995
2 55282  70.0009  20.3736 0002948 270.9227  89.1594 14.98336755152817
STARLINK-5317           
1 55283U 23010Q   25300.68138374 -.00000202  00000+0 -91249-5 0  9994
2 55283  70.0006  19.7767 0003065 268.3745  91.7063 14.98332276152856
STARLINK-5337           
1 55284U 23010R   25300.39347364  .00000528  00000+0  52037-4 0  9994
2 55284  70.0007  20.3726 0002985 269.9270  90.1547 14.98335032152809
STARLINK-5332           
1 55285U 23010S   25300.56843992  .00000640  00000+0  61430-4 0  9994
2 55285  69.9993 340.0257 0003916 267.6812  92.3899 14.98336121154709
STARLINK-5338           
1 55286U 23010T   25300.47671143  .00000485  00000+0  48452-4 0  9998
2 55286  70.0000   0.3987 0002908 271.6854  88.3972 14.98333408153317
STARLINK-5341           
1 55287U 23010U   25300.55158897  .00001202  00000+0  10857-3 0  9999
2 55287  69.9997 340.2927 0003071 270.5821  89.4986 14.98323779153816
STARLINK-5311           
1 55288U 23010V   25300.59782731  .00006507  00000+0  55187-3 0  9992
2 55288  70.0006   0.0143 0003200 272.6661  87.4132 14.98384323153331
STARLINK-5320           
1 55289U 23010W   25300.61440184 -.00000094  00000+0 -10387-6 0  9992
2 55289  69.9999   0.0752 0002942 271.8091  88.2731 14.98332367153331
STARLINK-5266           
1 55290U 23010X   25300.60604222 -.00014192  00000+0 -11821-2 0  9992
2 55290  70.0003   0.0462 0002740 262.6763  97.4085 14.98393920153336
STARLINK-5327           
1 55291U 23010Y   25300.48923242 -.00000510  00000+0 -34940-4 0  9993
2 55291  70.0000   0.4396 0003077 269.2754  90.8053 14.98332863153310
STARLINK-5325           
1 55292U 23010Z   25300.46001100  .00000644  00000+0  61717-4 0  9990
2 55292  70.0004   0.3361 0003337 269.0506  91.0271 14.98336697153312
STARLINK-5287           
1 55293U 23010AA  25300.59769982  .00000229  00000+0  27004-4 0  9994
2 55293  70.0005   0.0148 0003115 267.5631  92.5172 14.98339708153334
STARLINK-5286           
1 55294U 23010AB  25300.40182267 -.00000465  00000+0 -31205-4 0  9992
2 55294  70.0006  20.4018 0003080 271.2161  88.8646 14.98333599152817
STARLINK-5293           
1 55295U 23010AC  25300.64384009  .00000704  00000+0  66812-4 0  9993
2 55295  70.0009  20.0456 0003763 284.7485  75.3257 14.98336211152856
STARLINK-5285           
1 55296U 23010AD  25300.91481072  .00000440  00000+0  44690-4 0  9999
2 55296  70.0003 359.1134 0002966 264.7826  95.2995 14.98328196154261
STARLINK-5284           
1 55297U 23010AE  25300.58935873  .00000167  00000+0  21770-4 0  9996
2 55297  70.0003 359.9851 0003264 270.4279  89.6506 14.98334279153335
STARLINK-5270           
1 55299U 23010AG  25300.57683183  .00000157  00000+0  20938-4 0  9995
2 55299  70.0003 359.9420 0003155 271.5122  88.5675 14.98335148154216
